     3.00           N: GNSS NAV DATA    M: Mixed            RINEX VERSION / TYPE
RTKCONV demo5 b34f.1                    20231227 142154 UTC PGM / RUN BY / DATE 
format: u-blox UBX                                          COMMENT             
log: C:\Users\oo\Desktop\divers\verniquet\Reseau\micro\reseaCOMMENT             
                                                            END OF HEADER       
E24 2023 12 27 11 30 00 -.508819706738D-03 -.210178541238D-10  .000000000000D+00
      .117000000000D+03  .241250000000D+02  .301333980341D-08 -.839242030714D+00
      .106729567051D-05  .736316316761D-03  .992231070995D-05  .544062622070D+04
      .300600000000D+06 -.558793544769D-08  .269415636780D+01  .353902578354D-07
      .965372377120D+00  .127406250000D+03  .802296472034D+00 -.527700552275D-08
     -.747173979938D-09  .513000000000D+03  .229400000000D+04  .000000000000D+00
      .312000000000D+01  .000000000000D+00 -.279396772385D-08 -.372529029846D-08
      .301285000000D+06  .000000000000D+00
E31 2023 12 27 11 40 00 -.125247752294D-04 -.724753590475D-12  .000000000000D+00
      .118000000000D+03  .203125000000D+02  .294119394110D-08  .103944723992D+01
      .966712832451D-06  .188027741387D-03  .101439654827D-04  .544061476898D+04
      .301200000000D+06 -.689178705215D-07  .269081297678D+01  .409781932831D-07
      .967497638674D+00  .125125000000D+03 -.235586867493D+00 -.519235913974D-08
     -.760031658369D-09  .513000000000D+03  .229400000000D+04  .000000000000D+00
      .312000000000D+01  .000000000000D+00  .535510480404D-08  .605359673500D-08
      .301885000000D+06  .000000000000D+00
E09 2023 12 27 11 40 00 -.277890590951D-03 -.136424205266D-10  .000000000000D+00
      .118000000000D+03 -.483125000000D+02  .296869508664D-08  .162465844109D+01
     -.219047069550D-05  .179054448381D-03  .108275562525D-04  .544061112404D+04
      .301200000000D+06 -.130385160446D-07  .590928428392D+00 -.242143869400D-07
      .966192970295D+00  .110156250000D+03  .506001860186D+00 -.520807408005D-08
      .671813698023D-09  .513000000000D+03  .229400000000D+04  .000000000000D+00
      .312000000000D+01  .000000000000D+00  .209547579288D-08  .232830643654D-08
      .301885000000D+06  .000000000000D+00
E24 2023 12 27 11 40 00 -.508832221385D-03 -.210178541238D-10  .000000000000D+00
      .118000000000D+03  .229687500000D+02  .302048295810D-08 -.764899348580D+00
      .103004276752D-05  .736168120056D-03  .993721187115D-05  .544062592125D+04
      .301200000000D+06 -.558793544769D-08  .269415320058D+01  .335276126862D-07
      .965371923616D+00  .126937500000D+03  .802338437302D+00 -.527771983822D-08
     -.746816822204D-09  .513000000000D+03  .229400000000D+04  .000000000000D+00
      .312000000000D+01  .000000000000D+00 -.279396772385D-08 -.372529029846D-08
      .301885000000D+06  .000000000000D+00
G15 2023 12 27 14 00 00  .111158937216D-03  .386535248253D-11  .000000000000D+00
      .240000000000D+02 -.578125000000D+02  .482734393539D-08  .230688708210D+01
     -.308454036713D-05  .154464029474D-01  .101905316114D-04  .515359043694D+04
      .309600000000D+06  .169500708580D-06  .439895883749D+00 -.247731804848D-06
      .934338382624D+00  .167875000000D+03  .128214109071D+01 -.771424990090D-08
      .506449667090D-09  .100000000000D+01  .229400000000D+04  .000000000000D+00
      .200000000000D+01  .000000000000D+00 -.102445483208D-07  .240000000000D+02
      .302406000000D+06  .400000000000D+01
G24 2023 12 27 14 00 00 -.402057543397D-03 -.773070496507D-11  .000000000000D+00
      .820000000000D+02  .809375000000D+01  .568345102426D-08  .151970135716D+01
      .322237610817D-06  .150138771860D-01  .544078648090D-05  .515361217308D+04
      .309600000000D+06 -.407919287682D-06  .154161481522D+01  .186264514923D-07
      .933385017930D+00  .263250000000D+03  .955652111569D+00 -.854821321025D-08
      .176435920693D-09  .100000000000D+01  .229400000000D+04  .000000000000D+00
      .200000000000D+01  .000000000000D+00  .232830643654D-08  .820000000000D+02
      .302406000000D+06  .400000000000D+01
G13 2023 12 27 14 00 00  .609918031842D-03  .386535248253D-11  .000000000000D+00
      .260000000000D+02 -.232500000000D+02  .419160316853D-08  .298197269351D+01
     -.127032399178D-05  .774972152431D-02  .969693064690D-05  .515366009140D+04
      .309600000000D+06  .242143869400D-07  .727378762154D+00 -.126659870148D-06
      .970744711162D+00  .198000000000D+03  .950946594606D+00 -.747531137672D-08
      .622168772970D-09  .100000000000D+01  .229400000000D+04  .000000000000D+00
      .200000000000D+01  .000000000000D+00 -.111758708954D-07  .260000000000D+02
      .302406000000D+06  .400000000000D+01
G23 2023 12 27 14 00 00  .123857520521D-03  .716227077646D-11  .000000000000D+00
      .173000000000D+03 -.134406250000D+03  .399445209925D-08  .209976720773D+00
     -.699795782566D-05  .393141247332D-02  .588409602642D-05  .515370587158D+04
      .309600000000D+06  .391155481339D-07 -.487884882272D+00  .372529029846D-07
      .977270540018D+00  .274875000000D+03 -.299770881175D+01 -.787747098543D-08
     -.125719522437D-09  .100000000000D+01  .229400000000D+04  .000000000000D+00
      .200000000000D+01  .000000000000D+00 -.838190317154D-08  .941000000000D+03
      .302406000000D+06  .400000000000D+01
G22 2023 12 27 14 00 00  .586458481848D-04 -.670752342558D-11  .000000000000D+00
      .610000000000D+02  .310312500000D+02  .422839041515D-08 -.240498805709D+01
      .159814953804D-05  .147539437748D-01  .103544443846D-04  .515372326660D+04
      .309600000000D+06  .100582838058D-06  .277282657666D+01  .197440385818D-06
      .962655514420D+00  .179875000000D+03 -.115130568816D+01 -.741602319285D-08
     -.740745140723D-09  .100000000000D+01  .229400000000D+04  .000000000000D+00
      .200000000000D+01  .000000000000D+00 -.111758708954D-07  .610000000000D+02
      .302406000000D+06  .400000000000D+01
G17 2023 12 27 13 59 44  .721211079508D-03 -.795807864051D-12  .000000000000D+00
      .630000000000D+02  .164968750000D+03  .388230457071D-08 -.293216852525D+01
      .855326652527D-05  .137529124040D-01  .756606459618D-05  .515364946747D+04
      .309584000000D+06  .135973095894D-06 -.249293576325D+01  .633299350739D-07
      .971460868079D+00  .240000000000D+03 -.135414289033D+01 -.750852704600D-08
      .964325882329D-10  .100000000000D+01  .229400000000D+04  .000000000000D+00
      .200000000000D+01  .000000000000D+00 -.111758708954D-07  .630000000000D+02
      .302406000000D+06  .400000000000D+01
G19 2023 12 27 14 00 00  .418272335082D-03  .522959453519D-11  .000000000000D+00
      .550000000000D+02  .146781250000D+03  .397373695067D-08 -.883179626834D+00
      .770948827267D-05  .939321366604D-02  .736489892006D-05  .515368031120D+04
      .309600000000D+06 -.169500708580D-06 -.244853097400D+01 -.119209289551D-06
      .970573081613D+00  .246000000000D+03  .246311086323D+01 -.786532762247D-08
      .218937691062D-09  .100000000000D+01  .229400000000D+04  .000000000000D+00
      .200000000000D+01  .000000000000D+00 -.153668224812D-07  .550000000000D+02
      .302406000000D+06  .400000000000D+01
G12 2023 12 27 14 00 00 -.461774412543D-03 -.386535248253D-11  .000000000000D+00
      .620000000000D+02  .192187500000D+02  .442447001122D-08 -.220927063436D+00
      .976026058197D-06  .886054360308D-02  .974535942078D-05  .515373554993D+04
      .309600000000D+06 -.134110450745D-06  .275150019201D+01  .111758708954D-06
      .963778735607D+00  .194531250000D+03  .140093640976D+01 -.787604235449D-08
     -.627883296717D-09  .100000000000D+01  .229400000000D+04  .000000000000D+00
      .200000000000D+01  .000000000000D+00 -.125728547573D-07  .620000000000D+02
      .302406000000D+06  .400000000000D+01
G10 2023 12 27 13 59 44 -.669686123729D-04 -.147792889038D-11  .000000000000D+00
      .370000000000D+02 -.131375000000D+03  .390051961516D-08 -.956091610196D+00
     -.672973692417D-05  .924235058483D-02  .649876892567D-05  .515368951797D+04
      .309584000000D+06  .178813934326D-06 -.459638331884D+00  .128522515297D-06
      .982147575349D+00  .261781250000D+03 -.240245236362D+01 -.778711007868D-08
     -.110718897601D-09  .100000000000D+01  .229400000000D+04  .000000000000D+00
      .200000000000D+01  .000000000000D+00  .232830643654D-08  .370000000000D+02
      .302406000000D+06  .400000000000D+01
G14 2023 12 27 14 00 00  .282396562397D-03  .104591890704D-10  .000000000000D+00
      .750000000000D+02  .134375000000D+02  .477984195675D-08 -.236199407385D+00
      .506639480591D-06  .379709363915D-02  .957399606705D-05  .515368022728D+04
      .309600000000D+06  .577419996262D-07  .270948155674D+01  .558793544769D-08
      .947072775828D+00  .188906250000D+03 -.296260002718D+01 -.795818863336D-08
     -.758603027432D-09  .100000000000D+01  .229400000000D+04  .000000000000D+00
      .200000000000D+01  .000000000000D+00 -.791624188423D-08  .331000000000D+03
      .302406000000D+06  .400000000000D+01
E31 2023 12 27 11 50 00 -.125252408907D-04 -.724753590475D-12  .000000000000D+00
      .119000000000D+03  .204062500000D+02  .294012246790D-08  .111360642385D+01
      .972300767899D-06  .188024481758D-03  .101625919342D-04  .544061485291D+04
      .301800000000D+06 -.745058059692D-07  .269080989588D+01  .298023223877D-07
      .967497217354D+00  .124812500000D+03 -.235360848113D+00 -.519128766654D-08
     -.767174813053D-09  .513000000000D+03  .229400000000D+04  .000000000000D+00
      .312000000000D+01  .000000000000D+00  .535510480404D-08  .605359673500D-08
      .302485000000D+06  .000000000000D+00
